[{"OBJECT_NAME":"LEMUR-2-PETERG","OBJECT_ID":"2017-042S","EPOCH":"2026-03-09T11:34:35.656032","MEAN_MOTION":15.29611459,"ECCENTRICITY":0.00037,"INCLINATION":97.398,"RA_OF_ASC_NODE":253.6596,"ARG_OF_PERICENTER":341.6938,"MEAN_ANOMALY":18.4169,"EPHEMERIS_TYPE":0,"CLASSIFICATION_TYPE":"U","NORAD_CAT_ID":42841,"ELEMENT_SET_NO":999,"REV_AT_EPOCH":47317,"BSTAR":0.00081076471,"MEAN_MOTION_DOT":0.0002324,"MEAN_MOTION_DDOT":0},{"OBJECT_NAME":"STARLINK-34655","OBJECT_ID":"2025-161N","EPOCH":"2026-03-09T21:03:22.419648","MEAN_MOTION":15.3022114,"ECCENTRICITY":0.00034604,"INCLINATION":53.1602,"RA_OF_ASC_NODE":293.6767,"ARG_OF_PERICENTER":168.0698,"MEAN_ANOMALY":192.0386,"EPHEMERIS_TYPE":0,"CLASSIFICATION_TYPE":"U","NORAD_CAT_ID":65027,"ELEMENT_SET_NO":999,"REV_AT_EPOCH":3535,"BSTAR":0.0011161464,"MEAN_MOTION_DOT":0.00032869,"MEAN_MOTION_DDOT":0}]
