LEMUR-2-PETERG          
1 42841U 17042S   26068.48235713  .00023240  00000+0  81076-3 0  9993
2 42841  97.3980 253.6596 0003700 341.6938  18.4169 15.29611459473171
STARLINK-34655          
1 65027U 25161N   26068.87734281  .00032869  00000+0  11161-2 0  9996
2 65027  53.1602 293.6767 0003460 168.0698 192.0386 15.30221140 35354
